UNKNOWN                 
1 87029U          26056.04083260  .00000958  00000+0  60630-3 0  9997
2 87029  98.7453  93.6492 0081636  42.6311 318.1154 14.04679370603438
UNKNOWN                 
1 87042U          26059.39462680  .00000862  00000+0  53452-3 0  9998
2 87042  98.7040 104.7865 0042795 234.4958 125.2216 14.07259677564882
UNKNOWN                 
1 87051U          26061.62372643  .00001408  00000+0  51733-3 0  9993
2 87051  65.7278  63.8530 0708861 104.7326 263.3326 13.46233684599330
UNKNOWN                 
1 87054U          26062.55002992  .00002126  00000+0  12019-2 0  9997
2 87054 100.0901 316.8997 0013079 120.0417 240.2049 14.11444057627721
UNKNOWN                 
1 87071U          26062.31283576  .00005843  00000+0  21075-2 0  9990
2 87071  61.2221  32.2024 0472631 278.1694  76.6001 13.86571578613654
UNKNOWN                 
1 87129U          26061.69777614  .00000211  00000+0  18539-2 0  9990
2 87129 102.2550 158.6101 0030460 287.7140  72.0600 12.42854248556605
UNKNOWN                 
1 87159U          26059.48067816  .00001382  00000+0  16012-2 0  9997
2 87159  90.3448  72.2002 0105350  27.8472 332.8272 13.66288706567302
UNKNOWN                 
1 87163U          26061.91573555  .00007211  00000+0  21151-2 0  9992
2 87163  65.6013  38.4765 0645706  28.7167 334.7886 13.64385473588453
UNKNOWN                 
1 87164U          26059.57227744  .00004202  00000+0  84687-3 0  9999
2 87164  65.2024 101.5097 0105127  18.1644 342.3166 14.59199266647127
UNKNOWN                 
1 87204U          26062.55163021  .00002566  00000+0  10039-2 0  9993
2 87204  98.5330 286.7563 0046370  86.0738 274.5744 14.29774592636985
UNKNOWN                 
1 87211U          26055.81893811  .00003419  00000+0  93562-3 0  9990
2 87211  99.0886  65.9782 0051590 299.6495 186.2543 14.47142657718480
UNKNOWN                 
1 87214U          26061.47965627  .00001769  00000+0  16007-2 0  9991
2 87214 100.3330  72.9871 0068963  50.2422 310.4777 13.84252622611276
